NORAD_CAT_ID,OBJECT_NAME,OBJECT_TYPE,EPOCH,MEAN_MOTION,ECCENTRICITY,INCLINATION,RA_OF_ASC_NODE,ARG_OF_PERICENTER,MEAN_ANOMALY,BSTAR,MEAN_MOTION_DOT,MEAN_MOTION_DDOT,TLE_LINE0,TLE_LINE1,TLE_LINE2,SEMIMAJOR_AXIS,PERIOD,APOGEE,PERIGEE,DECAYED
53541.0,STARLINK-4485,PAYLOAD,2023-05-27 19:11:09,15.0884051,0.0001035,53.2168,319.1185,78.5414,281.5694,0.00010019,1.307e-05,0.0,0 STARLINK-4485,1 53541U 22101Q   23147.79941150  .00001307  00000-0  10019-3 0  9992,2 53541  53.2168 319.1185 0001035  78.5414 281.5694 15.08840510 43342,6917.879,95.438,540.46,539.028,0.0
53541.0,STARLINK-4485,PAYLOAD,2023-05-28 04:43:27,15.0884344,0.0001015,53.2167,317.3346,78.6623,281.4483,0.00011686,1.573e-05,0.0,0 STARLINK-4485,1 53541U 22101Q   23148.19685076  .00001573  00000-0  11686-3 0  9995,2 53541  53.2167 317.3346 0001015  78.6623 281.4483 15.08843440 43408,6917.87,95.437,540.437,539.033,0.0
53541.0,STARLINK-4485,PAYLOAD,2023-05-28 17:26:32,15.08848332,0.0001023,53.2165,314.9557,79.4584,280.6523,0.00018692,2.689e-05,0.0,0 STARLINK-4485,1 53541U 22101Q   23148.72676853  .00002689  00000-0  18692-3 0  9990,2 53541  53.2165 314.9557 0001023  79.4584 280.6523 15.08848332 42799,6917.855,95.437,540.428,539.012,0.0
53541.0,STARLINK-4485,PAYLOAD,2023-05-29 10:55:47,15.08839858,0.0001155,53.2161,311.6853,78.2678,281.8444,5.5957e-05,6.03e-06,0.0,0 STARLINK-4485,1 53541U 22101Q   23149.45541232  .00000603  00000-0  55957-4 0  9993,2 53541  53.2161 311.6853 0001155  78.2678 281.8444 15.08839858 42906,6917.881,95.438,540.545,538.947,0.0
53541.0,STARLINK-4485,PAYLOAD,2023-05-29 14:06:33,15.08838094,0.000106,53.2162,311.0906,76.9683,283.1427,6.9679e-05,8.21e-06,0.0,0 STARLINK-4485,1 53541U 22101Q   23149.58789299  .00000821  00000-0  69679-4 0  9992,2 53541  53.2162 311.0906 0001060  76.9683 283.1427 15.08838094 43612,6917.886,95.438,540.485,539.018,0.0
53541.0,STARLINK-4485,PAYLOAD,2023-05-29 17:17:19,15.08841744,0.0001076,53.2176,310.4949,87.7529,272.3586,0.00010884,1.445e-05,0.0,0 STARLINK-4485,1 53541U 22101Q   23149.72036957  .00001445  00000-0  10884-3 0  9990,2 53541  53.2176 310.4949 0001076  87.7529 272.3586 15.08841744 43637,6917.875,95.437,540.484,538.996,0.0
53541.0,STARLINK-4485,PAYLOAD,2023-05-30 10:46:34,15.08838202,0.0001028,53.2188,307.2235,92.0691,268.0419,6.0965e-05,6.83e-06,0.0,0 STARLINK-4485,1 53541U 22101Q   23150.44901202  .00000683  00000-0  60965-4 0  9994,2 53541  53.2188 307.2235 0001028  92.0691 268.0419 15.08838202 43742,6917.886,95.438,540.462,539.04,0.0
53541.0,STARLINK-4485,PAYLOAD,2023-05-30 15:32:43,15.08841727,0.0001179,53.2181,306.3316,89.631,270.4817,2.3074e-05,7.9e-07,0.0,0 STARLINK-4485,1 53541U 22101Q   23150.64773075  .00000079  00000-0  23074-4 0  9990,2 53541  53.2181 306.3316 0001179  89.6310 270.4817 15.08841727 43084,6917.875,95.437,540.556,538.924,0.0
53541.0,STARLINK-4485,PAYLOAD,2023-05-30 17:08:06,15.08863575,0.0001459,53.2185,306.0343,108.4111,251.704,-0.00028698,-4.855e-05,0.0,0 STARLINK-4485,1 53541U 22101Q   23150.71396388 -.00004855  00000-0 -28698-3 0  9990,2 53541  53.2185 306.0343 0001459 108.4111 251.7040 15.08863575 43787,6917.808,95.436,540.683,538.664,0.0
53541.0,STARLINK-4485,PAYLOAD,2023-05-31 13:48:07,15.08839623,0.0001047,53.2182,302.1693,91.4592,268.652,6.2289e-05,7.04e-06,0.0,0 STARLINK-4485,1 53541U 22101Q   23151.57509035  .00000704  00000-0  62289-4 0  9992,2 53541  53.2182 302.1693 0001047  91.4592 268.6520 15.08839623 43918,6917.882,95.438,540.471,539.022,0.0
53541.0,STARLINK-4485,PAYLOAD,2023-05-31 16:58:53,15.08842848,0.0001028,53.2181,301.5749,89.7526,270.3584,8.7634e-05,1.107e-05,0.0,0 STARLINK-4485,1 53541U 22101Q   23151.70756756  .00001107  00000-0  87634-4 0  9990,2 53541  53.2181 301.5749 0001028  89.7526 270.3584 15.08842848 43247,6917.872,95.437,540.448,539.026,0.0
53541.0,STARLINK-4485,PAYLOAD,2023-06-01 02:31:12,15.08838514,9.37e-05,53.2173,299.7903,81.8959,278.2139,6.0124e-05,6.69e-06,0.0,0 STARLINK-4485,1 53541U 22101Q   23152.10501101  .00000669  00000-0  60124-4 0  9994,2 53541  53.2173 299.7903 0000937  81.8959 278.2139 15.08838514 43999,6917.885,95.438,540.398,539.102,0.0
53541.0,STARLINK-4485,PAYLOAD,2023-06-02 02:21:59,15.08845297,8.72e-05,53.2179,295.3326,114.2719,245.8364,0.00010099,1.32e-05,0.0,0 STARLINK-4485,1 53541U 22101Q   23153.09860483  .00001320  00000-0  10099-3 0  9994,2 53541  53.2179 295.3326 0000872 114.2719 245.8364 15.08845297 43456,6917.864,95.437,540.332,539.126,0.0
53541.0,STARLINK-4485,PAYLOAD,2023-06-02 13:29:42,15.08828469,8.15e-05,53.217,293.2519,102.2879,257.8205,-3.6867e-05,-8.74e-06,0.0,0 STARLINK-4485,1 53541U 22101Q   23153.56230209 -.00000874  00000-0 -36867-4 0  9990,2 53541  53.2170 293.2519 0000815 102.2879 257.8205 15.08828469 44213,6917.916,95.438,540.344,539.217,0.0
53541.0,STARLINK-4485,PAYLOAD,2023-06-02 18:15:52,15.08834811,0.0001106,53.2173,292.3561,78.6533,281.4584,-3.672e-05,-8.72e-06,0.0,0 STARLINK-4485,1 53541U 22101Q   23153.76101994 -.00000872  00000-0 -36720-4 0  9996,2 53541  53.2173 292.3561 0001106  78.6533 281.4584 15.08834811 43557,6917.896,95.438,540.526,538.996,0.0
53541.0,STARLINK-4485,PAYLOAD,2023-06-02 19:51:15,15.08834346,0.0001109,53.2165,292.0578,72.4603,287.6511,-1.6337e-05,-5.48e-06,0.0,0 STARLINK-4485,1 53541U 22101Q   23153.82725984 -.00000548  00000-0 -16337-4 0  9996,2 53541  53.2165 292.0578 0001109  72.4603 287.6511 15.08834346 44255,6917.898,95.438,540.53,538.995,0.0
53541.0,STARLINK-4485,PAYLOAD,2023-06-03 13:20:29,15.08832688,0.0001084,53.2172,288.7857,76.0697,284.0416,5.2398e-05,5.46e-06,0.0,0 STARLINK-4485,1 53541U 22101Q   23154.55590238  .00000546  00000-0  52398-4 0  9992,2 53541  53.2172 288.7857 0001084  76.0697 284.0416 15.08832688 44364,6917.903,95.438,540.518,539.018,0.0
53541.0,STARLINK-4485,PAYLOAD,2023-06-03 16:31:16,15.08843288,0.0001002,53.2173,288.1912,75.5774,284.5329,-5.7628e-05,-1.205e-05,0.0,0 STARLINK-4485,1 53541U 22101Q   23154.68837983 -.00001205  00000-0 -57628-4 0  9993,2 53541  53.2173 288.1912 0001002  75.5774 284.5329 15.08843288 44389,6917.87,95.437,540.429,539.042,0.0
53541.0,STARLINK-4485,PAYLOAD,2023-06-04 02:03:34,15.08847556,9.22e-05,53.2172,286.4078,83.2814,276.8283,-1.4984e-05,-5.26e-06,0.0,0 STARLINK-4485,1 53541U 22101Q   23155.08581509 -.00000526  00000-0 -14984-4 0  9991,2 53541  53.2172 286.4078 0000922  83.2814 276.8283 15.08847556 43758,6917.857,95.437,540.36,539.084,0.0
53541.0,STARLINK-4485,PAYLOAD,2023-06-04 14:46:39,15.08844988,8.89e-05,53.2169,284.0291,78.9138,281.1954,0.00018708,2.691e-05,0.0,0 STARLINK-4485,1 53541U 22101Q   23155.61573375  .00002691  00000-0  18708-3 0  9992,2 53541  53.2169 284.0291 0000889  78.9138 281.1954 15.08844988 44523,6917.865,95.437,540.345,539.115,0.0
53541.0,STARLINK-4485,PAYLOAD,2023-06-04 17:57:25,15.08849007,9.36e-05,53.2169,283.4343,78.8902,281.2196,0.00023141,3.398e-05,0.0,0 STARLINK-4485,1 53541U 22101Q   23155.74821100  .00003398  00000-0  23141-3 0  9990,2 53541  53.2169 283.4343 0000936  78.8902 281.2196 15.08849007 44543,6917.853,95.437,540.365,539.07,0.0
53541.0,STARLINK-4485,PAYLOAD,2023-06-05 03:29:44,15.08844108,9.43e-05,53.2153,281.6496,84.2096,275.9003,0.00016125,2.28e-05,0.0,0 STARLINK-4485,1 53541U 22101Q   23156.14565674  .00002280  00000-0  16125-3 0  9999,2 53541  53.2153 281.6496 0000943  84.2096 275.9003 15.08844108 43912,6917.868,95.437,540.385,539.08,0.0
53541.0,STARLINK-4485,PAYLOAD,2023-06-05 14:37:26,15.08845775,8.63e-05,53.2166,279.5695,82.7819,277.3271,0.00019285,2.783e-05,0.0,0 STARLINK-4485,1 53541U 22101Q   23156.60933659  .00002783  00000-0  19285-3 0  9990,2 53541  53.2166 279.5695 0000863  82.7819 277.3271 15.08845775 44678,6917.863,95.437,540.325,539.131,0.0
53541.0,STARLINK-4485,PAYLOAD,2023-06-05 17:48:12,15.08852305,8.95e-05,53.2164,278.9737,86.6627,273.4467,0.0002176,3.178e-05,0.0,0 STARLINK-4485,1 53541U 22101Q   23156.74181254  .00003178  00000-0  21760-3 0  9991,2 53541  53.2164 278.9737 0000895  86.6627 273.4467 15.08852305 44694,6917.843,95.437,540.327,539.089,0.0
53541.0,STARLINK-4485,PAYLOAD,2023-06-06 09:42:04,15.08839178,9.96e-05,53.2163,276.0007,90.2021,269.9086,-3.9723e-06,-3.51e-06,0.0,0 STARLINK-4485,1 53541U 22101Q   23157.40421905 -.00000351  00000-0 -39723-5 0  9997,2 53541  53.2163 276.0007 0000996  90.2021 269.9086 15.08839178 44109,6917.883,95.438,540.437,539.059,0.0
53541.0,STARLINK-4485,PAYLOAD,2023-06-06 11:17:27,15.08839752,9.89e-05,53.2163,275.7033,91.8858,268.2247,7.556e-06,-1.67e-06,0.0,0 STARLINK-4485,1 53541U 22101Q   23157.47045881 -.00000167  00000-0  75560-5 0  9992,2 53541  53.2163 275.7033 0000989  91.8858 268.2247 15.08839752 44807,6917.881,95.438,540.43,539.062,0.0
53541.0,STARLINK-4485,PAYLOAD,2023-06-06 17:38:59,15.08848209,9.92e-05,53.2164,274.5136,91.1859,268.9247,6.4251e-05,7.35e-06,0.0,0 STARLINK-4485,1 53541U 22101Q   23157.73541393  .00000735  00000-0  64251-4 0  9994,2 53541  53.2164 274.5136 0000992  91.1859 268.9247 15.08848209 44159,6917.855,95.437,540.407,539.034,0.0
53541.0,STARLINK-4485,PAYLOAD,2023-06-06 19:14:22,15.08849873,9.95e-05,53.2164,274.2162,91.8374,268.2732,9.1252e-05,1.165e-05,0.0,0 STARLINK-4485,1 53541U 22101Q   23157.80165286  .00001165  00000-0  91252-4 0  9994,2 53541  53.2164 274.2162 0000995  91.8374 268.2732 15.08849873 44854,6917.85,95.437,540.404,539.027,0.0
53541.0,STARLINK-4485,PAYLOAD,2023-06-07 07:57:28,15.08836499,0.0001006,53.2168,271.8393,82.9035,277.2071,4.8922e-05,4.91e-06,0.0,0 STARLINK-4485,1 53541U 22101Q   23158.33158109  .00000491  00000-0  48922-4 0  9996,2 53541  53.2168 271.8393 0001006  82.9035 277.2071 15.08836499 44245,6917.891,95.438,540.452,539.06,0.0
53541.0,STARLINK-4485,PAYLOAD,2023-06-07 19:05:10,15.08844373,0.0001201,53.2162,269.7552,105.2696,254.8429,9.6137e-05,1.243e-05,0.0,0 STARLINK-4485,1 53541U 22101Q   23158.79525664  .00001243  00000-0  96137-4 0  9997,2 53541  53.2162 269.7552 0001201 105.2696 254.8429 15.08844373 45004,6917.867,95.437,540.563,538.901,0.0
